[{"OBJECT_NAME":"STARLINK-31483","OBJECT_ID":"2024-064P","EPOCH":"2026-03-09T22:42:33.317280","MEAN_MOTION":15.27563004,"ECCENTRICITY":0.00013862,"INCLINATION":43.0055,"RA_OF_ASC_NODE":54.8401,"ARG_OF_PERICENTER":263.1784,"MEAN_ANOMALY":96.891,"EPHEMERIS_TYPE":0,"CLASSIFICATION_TYPE":"U","NORAD_CAT_ID":59411,"ELEMENT_SET_NO":999,"REV_AT_EPOCH":10926,"BSTAR":-9.6297293e-5,"MEAN_MOTION_DOT":-2.91e-5,"MEAN_MOTION_DDOT":0},{"OBJECT_NAME":"FLOCK 4G-27","OBJECT_ID":"2025-009AJ","EPOCH":"2026-03-09T18:05:51.175392","MEAN_MOTION":15.27199247,"ECCENTRICITY":7.564e-5,"INCLINATION":97.3976,"RA_OF_ASC_NODE":150.8631,"ARG_OF_PERICENTER":322.4974,"MEAN_ANOMALY":37.6212,"EPHEMERIS_TYPE":0,"CLASSIFICATION_TYPE":"U","NORAD_CAT_ID":62641,"ELEMENT_SET_NO":999,"REV_AT_EPOCH":6371,"BSTAR":0.00047455305,"MEAN_MOTION_DOT":0.00012587,"MEAN_MOTION_DDOT":0}]
